[{"OBJECT_NAME":"ONEWEB-0272","OBJECT_ID":"2021-060Z","EPOCH":"2026-03-09T22:34:59.492640","MEAN_MOTION":13.16595859,"ECCENTRICITY":0.0001497,"INCLINATION":87.9003,"RA_OF_ASC_NODE":248.5246,"ARG_OF_PERICENTER":103.3122,"MEAN_ANOMALY":256.8176,"EPHEMERIS_TYPE":0,"CLASSIFICATION_TYPE":"U","NORAD_CAT_ID":48990,"ELEMENT_SET_NO":999,"REV_AT_EPOCH":22655,"BSTAR":0.00011341349,"MEAN_MOTION_DOT":5.6e-7,"MEAN_MOTION_DDOT":0},{"OBJECT_NAME":"THOR ABLESTAR DEB","OBJECT_ID":"1961-015HX","EPOCH":"2026-03-09T13:56:42.962784","MEAN_MOTION":13.57541426,"ECCENTRICITY":0.031198,"INCLINATION":66.987,"RA_OF_ASC_NODE":151.2014,"ARG_OF_PERICENTER":150.8521,"MEAN_ANOMALY":211.0365,"EPHEMERIS_TYPE":0,"CLASSIFICATION_TYPE":"U","NORAD_CAT_ID":3124,"ELEMENT_SET_NO":999,"REV_AT_EPOCH":15562,"BSTAR":0.0024494,"MEAN_MOTION_DOT":2.344e-5,"MEAN_MOTION_DDOT":0}]
